NORAD_CAT_ID,OBJECT_NAME,OBJECT_TYPE,EPOCH,MEAN_MOTION,ECCENTRICITY,INCLINATION,RA_OF_ASC_NODE,ARG_OF_PERICENTER,MEAN_ANOMALY,BSTAR,MEAN_MOTION_DOT,MEAN_MOTION_DDOT,TLE_LINE0,TLE_LINE1,TLE_LINE2,SEMIMAJOR_AXIS,PERIOD,APOGEE,PERIGEE,DECAYED
55963.0,STARLINK-5924,PAYLOAD,2023-05-29 22:21:23,15.69926026,0.0003569,69.9971,335.3522,272.7283,87.3504,2.1155e-05,2.332e-05,0.0,0 STARLINK-5924,1 55963U 23037BB  23149.93152061  .00002332  00000-0  21155-4 0  9997,2 55963  69.9971 335.3522 0003569 272.7283  87.3504 15.69926026 12015,6737.246,91.724,361.515,356.706,0.0
55963.0,STARLINK-5924,PAYLOAD,2023-05-30 12:07:09,15.69926602,0.0003484,69.9968,333.7389,267.9629,92.1168,3.6718e-06,2.29e-06,0.0,0 STARLINK-5924,1 55963U 23037BB  23150.50497222  .00000229  00000-0  36718-5 0  9998,2 55963  69.9968 333.7389 0003484 267.9629  92.1168 15.69926602 11761,6737.244,91.724,361.456,356.762,0.0
55963.0,STARLINK-5924,PAYLOAD,2023-05-30 21:17:40,15.69931942,0.0003106,69.9977,332.6656,269.0106,91.0734,1.1606e-06,-7.3e-07,0.0,0 STARLINK-5924,1 55963U 23037BB  23150.88726888 -.00000073  00000-0  11606-5 0  9999,2 55963  69.9977 332.6656 0003106 269.0106  91.0734 15.69931942 11827,6737.229,91.724,361.186,357.001,0.0
55963.0,STARLINK-5924,PAYLOAD,2023-05-31 14:06:57,15.69921719,0.000341,69.998,330.6933,272.94,87.1405,2.5406e-06,9.3e-07,0.0,0 STARLINK-5924,1 55963U 23037BB  23151.58816057  .00000093  00000-0  25406-5 0  9999,2 55963  69.9980 330.6933 0003410 272.9400  87.1405 15.69921719 11939,6737.258,91.724,361.42,356.826,0.0
55963.0,STARLINK-5924,PAYLOAD,2023-05-31 18:42:11,15.69926009,0.0002707,70.0,330.1612,258.6141,101.4751,2.3916e-05,2.664e-05,0.0,0 STARLINK-5924,1 55963U 23037BB  23151.77930361  .00002664  00000-0  23916-4 0  9994,2 55963  70.0000 330.1612 0002707 258.6141 101.4751 15.69926009 12308,6737.246,91.724,360.934,357.287,0.0
55963.0,STARLINK-5924,PAYLOAD,2023-05-31 21:45:41,15.69931008,0.0003703,69.9975,329.7989,269.0496,91.0276,1.5957e-05,1.707e-05,0.0,0 STARLINK-5924,1 55963U 23037BB  23151.90673492  .00001707  00000-0  15957-4 0  9991,2 55963  69.9975 329.7989 0003703 269.0496  91.0276 15.69931008 11987,6737.231,91.724,361.591,356.602,0.0
55963.0,STARLINK-5924,PAYLOAD,2023-06-01 05:24:28,15.69918911,0.0003469,69.9968,328.9016,273.1197,86.9601,3.3778e-06,1.93e-06,0.0,0 STARLINK-5924,1 55963U 23037BB  23152.22532871  .00000193  00000-0  33778-5 0  9992,2 55963  69.9968 328.9016 0003469 273.1197  86.9601 15.69918911 12034,6737.266,91.724,361.468,356.794,0.0
55963.0,STARLINK-5924,PAYLOAD,2023-06-02 13:31:15,15.69926476,0.0003771,69.9985,325.1419,274.7485,85.328,1.3467e-06,-5.1e-07,0.0,0 STARLINK-5924,1 55963U 23037BB  23153.56337783 -.00000051  00000-0  13467-5 0  9992,2 55963  69.9985 325.1419 0003771 274.7485  85.3280 15.69926476 12246,6737.244,91.724,361.65,356.569,0.0
55963.0,STARLINK-5924,PAYLOAD,2023-06-02 15:03:00,15.69925311,0.0003749,69.9988,324.9626,275.727,84.3498,4.3411e-06,3.09e-06,0.0,0 STARLINK-5924,1 55963U 23037BB  23153.62709470  .00000309  00000-0  43411-5 0  9992,2 55963  69.9988 324.9626 0003749 275.7270  84.3498 15.69925311 12599,6737.248,91.724,361.638,356.587,0.0
55963.0,STARLINK-5924,PAYLOAD,2023-06-02 21:10:01,15.6993012,0.0003763,69.9974,324.244,274.3762,85.7004,3.5387e-06,2.13e-06,0.0,0 STARLINK-5924,1 55963U 23037BB  23153.88195782  .00000213  00000-0  35387-5 0  9992,2 55963  69.9974 324.2440 0003763 274.3762  85.7004 15.69930120 12297,6737.234,91.724,361.634,356.564,0.0
55963.0,STARLINK-5924,PAYLOAD,2023-06-03 13:59:17,15.69926619,0.0003857,69.9969,322.2746,273.4387,86.6368,1.0096e-05,1.001e-05,0.0,0 STARLINK-5924,1 55963U 23037BB  23154.58284269  .00001001  00000-0  10096-4 0  9994,2 55963  69.9969 322.2746 0003857 273.4387  86.6368 15.69926619 12409,6737.244,91.724,361.707,356.51,0.0
55963.0,STARLINK-5924,PAYLOAD,2023-06-03 18:34:32,15.69934456,0.0003023,70.0,321.7378,256.8616,103.2243,2.2256e-05,2.465e-05,0.0,0 STARLINK-5924,1 55963U 23037BB  23154.77398513  .00002465  00000-0  22256-4 0  9999,2 55963  70.0000 321.7378 0003023 256.8616 103.2243 15.69934456 12774,6737.222,91.724,361.123,357.05,0.0
55963.0,STARLINK-5924,PAYLOAD,2023-06-03 20:06:17,15.69934189,0.0003241,69.9997,321.5586,262.8663,97.2165,2.1858e-05,2.417e-05,0.0,0 STARLINK-5924,1 55963U 23037BB  23154.83770186  .00002417  00000-0  21858-4 0  9990,2 55963  69.9997 321.5586 0003241 262.8663  97.2165 15.69934189 12448,6737.222,91.724,361.271,356.904,0.0
55963.0,STARLINK-5924,PAYLOAD,2023-06-04 09:52:04,15.69918656,0.0003632,69.9981,319.9445,271.6746,88.4034,1.574e-06,-2.4e-07,0.0,0 STARLINK-5924,1 55963U 23037BB  23155.41116713 -.00000024  00000-0  15740-5 0  9992,2 55963  69.9981 319.9445 0003632 271.6746  88.4034 15.69918656 12875,6737.267,91.724,361.579,356.685,0.0
55963.0,STARLINK-5924,PAYLOAD,2023-06-04 14:27:20,15.69921574,0.0003602,69.9983,319.4074,271.4423,88.636,4.6204e-06,3.43e-06,0.0,0 STARLINK-5924,1 55963U 23037BB  23155.60231491  .00000343  00000-0  46204-5 0  9996,2 55963  69.9983 319.4074 0003602 271.4423  88.6360 15.69921574 12560,6737.258,91.724,361.55,356.697,0.0
55963.0,STARLINK-5924,PAYLOAD,2023-06-04 19:02:34,15.69935145,0.0003581,69.9983,318.8704,272.2976,87.781,1.8375e-05,1.998e-05,0.0,0 STARLINK-5924,1 55963U 23037BB  23155.79345307  .00001998  00000-0  18375-4 0  9992,2 55963  69.9983 318.8704 0003581 272.2976  87.7810 15.69935145 12931,6737.22,91.724,361.497,356.672,0.0
55963.0,STARLINK-5924,PAYLOAD,2023-06-04 20:34:19,15.69934881,0.0003887,69.9979,318.6914,276.1833,83.892,1.2505e-05,1.292e-05,0.0,0 STARLINK-5924,1 55963U 23037BB  23155.85717079  .00001292  00000-0  12505-4 0  9994,2 55963  69.9979 318.6914 0003887 276.1833  83.8920 15.69934881 12600,6737.22,91.724,361.704,356.467,0.0
55963.0,STARLINK-5924,PAYLOAD,2023-06-05 04:13:06,15.69916841,0.0004014,69.998,317.7962,273.0391,87.0345,6.5214e-06,5.71e-06,0.0,0 STARLINK-5924,1 55963U 23037BB  23156.17576623  .00000571  00000-0  65214-5 0  9993,2 55963  69.9980 317.7962 0004014 273.0391  87.0345 15.69916841 12998,6737.272,91.725,361.841,356.433,0.0
55963.0,STARLINK-5924,PAYLOAD,2023-06-05 13:23:36,15.69921406,0.0004024,69.9982,316.7201,271.966,88.1075,-3.48e-07,-2.55e-06,0.0,0 STARLINK-5924,1 55963U 23037BB  23156.55806620 -.00000255  00000-0 -34800-6 0  9997,2 55963  69.9982 316.7201 0004024 271.9660  88.1075 15.69921406 12717,6737.259,91.724,361.835,356.413,0.0
55963.0,STARLINK-5924,PAYLOAD,2023-06-05 19:30:36,15.6993195,0.0004031,69.998,316.0036,273.2526,86.8209,1.2072e-06,-6.8e-07,0.0,0 STARLINK-5924,1 55963U 23037BB  23156.81292576 -.00000068  00000-0  12072-5 0  9992,2 55963  69.9980 316.0036 0004031 273.2526  86.8209 15.69931950 12751,6737.229,91.724,361.809,356.378,0.0
55963.0,STARLINK-5924,PAYLOAD,2023-06-06 13:51:39,15.69918529,0.0004056,69.9976,313.8538,276.3252,83.7482,1.032e-05,1.028e-05,0.0,0 STARLINK-5924,1 55963U 23037BB  23157.57753509  .00001028  00000-0  10320-4 0  9993,2 55963  69.9976 313.8538 0004056 276.3252  83.7482 15.69918529 13213,6737.267,91.725,361.865,356.399,0.0
55963.0,STARLINK-5924,PAYLOAD,2023-06-06 19:58:39,15.69922085,0.0004182,69.998,313.1375,275.7545,84.3174,1.1418e-05,1.16e-05,0.0,0 STARLINK-5924,1 55963U 23037BB  23157.83240024  .00001160  00000-0  11418-4 0  9991,2 55963  69.9980 313.1375 0004182 275.7545  84.3174 15.69922085 12911,6737.257,91.724,361.939,356.304,0.0
55963.0,STARLINK-5924,PAYLOAD,2023-06-06 23:02:10,15.69909536,0.0003564,69.998,312.7775,281.7766,78.303,-8.4679e-06,-1.23e-05,0.0,0 STARLINK-5924,1 55963U 23037BB  23157.95984606 -.00001230  00000-0 -84679-5 0  9995,2 55963  69.9980 312.7775 0003564 281.7766  78.3030 15.69909536 13275,6737.293,91.725,361.559,356.757,0.0
55963.0,STARLINK-5924,PAYLOAD,2023-06-07 03:37:25,15.69911782,0.00042,69.997,312.2406,271.6828,88.3886,6.0354e-06,5.12e-06,0.0,0 STARLINK-5924,1 55963U 23037BB  23158.15099077  .00000512  00000-0  60354-5 0  9991,2 55963  69.9970 312.2406 0004200 271.6828  88.3886 15.69911782 13305,6737.286,91.725,361.981,356.322,0.0
55963.0,STARLINK-5924,PAYLOAD,2023-06-07 14:19:39,15.69937572,0.0004173,69.9975,310.9874,272.2675,87.8043,2.7677e-05,3.118e-05,0.0,0 STARLINK-5924,1 55963U 23037BB  23158.59698915  .00003118  00000-0  27677-4 0  9990,2 55963  69.9975 310.9874 0004173 272.2675  87.8043 15.69937572 13371,6737.213,91.723,361.889,356.266,0.0
55963.0,STARLINK-5924,PAYLOAD,2023-06-07 18:54:55,15.69937541,0.0003762,69.9975,310.4484,271.1806,88.8959,3.3313e-05,3.797e-05,0.0,0 STARLINK-5924,1 55963U 23037BB  23158.78814036  .00003797  00000-0  33313-4 0  9992,2 55963  69.9975 310.4484 0003762 271.1806  88.8959 15.69937541 13069,6737.213,91.723,361.612,356.543,0.0
55963.0,STARLINK-5924,PAYLOAD,2023-06-08 10:12:27,15.69935773,0.0003272,69.9994,308.6572,311.4392,48.6522,3.1927e-05,3.63e-05,0.0,0 STARLINK-5924,1 55963U 23037BB  23159.42531730  .00003630  00000-0  31927-4 0  9996,2 55963  69.9994 308.6572 0003272 311.4392  48.6522 15.69935773 13505,6737.218,91.723,361.287,356.878,0.0
55963.0,STARLINK-5924,PAYLOAD,2023-06-08 11:44:12,15.69924773,0.0004057,69.9993,308.4777,277.3085,82.7649,8.8174e-06,8.47e-06,0.0,0 STARLINK-5924,1 55963U 23037BB  23159.48903420  .00000847  00000-0  88174-5 0  9995,2 55963  69.9993 308.4777 0004057 277.3085  82.7649 15.69924773 13170,6737.249,91.724,361.848,356.381,0.0
55963.0,STARLINK-5924,PAYLOAD,2023-06-08 13:15:57,15.69924811,0.0004054,69.9995,308.2983,277.0322,83.0412,8.36e-06,7.92e-06,0.0,0 STARLINK-5924,1 55963U 23037BB  23159.55275083  .00000792  00000-0  83600-5 0  9998,2 55963  69.9995 308.2983 0004054 277.0322  83.0412 15.69924811 13521,6737.249,91.724,361.845,356.383,0.0
55963.0,STARLINK-5924,PAYLOAD,2023-06-08 19:22:57,15.6993306,0.0003971,69.9989,307.5813,271.5379,88.5362,2.3113e-05,2.568e-05,0.0,0 STARLINK-5924,1 55963U 23037BB  23159.80761274  .00002568  00000-0  23113-4 0  9993,2 55963  69.9989 307.5813 0003971 271.5379  88.5362 15.69933060 13560,6737.226,91.724,361.766,356.415,0.0
